GOES 1 (SMS-C) [-]      
1 08366U 75100A   23031.47796740 -.00000147  00000+0  00000+0 0  9990
2 08366   7.7213 292.8541 0002009 320.2945 316.8710  1.00233222172700
GOES 2 [-]              
1 10061U 77048A   23030.86111813  .00000096  00000+0  00000+0 0  9994
2 10061   9.3328 304.7097 0012652  27.1086 175.3738  0.99393061 34017
GOES 3 [-]              
1 10953U 78062A   23031.38212927  .00000025  00000+0  00000+0 0  9999
2 10953   9.6789 309.3647 0000950 119.5136  95.5584  0.99357828116286
GOES 4 [-]              
1 11964U 80074A   23031.52519174  .00000077  00000+0  00000+0 0  9995
2 11964  10.6563 313.1951 0032741  77.9942 144.9908  0.99229524115208
GOES 5 [-]              
1 12472U 81049A   23031.32585848 -.00000273  00000+0  00000+0 0  9991
2 12472  11.5627 324.7393 0000385 297.2816 276.7480  1.00250641110489
GOES 6 [-]              
1 14050U 83041A   23031.31762963 -.00000230  00000+0  00000+0 0  9996
2 14050  12.1566 330.0975 0002615 147.3990  45.7686  1.00239187203650
GOES 7 [-]              
1 17561U 87022A   23031.33114847 -.00000284  00000+0  00000+0 0  9992
2 17561  14.0455 346.7055 0004727  54.5746 149.8946  0.99899299114643
GOES 8 [-]              
1 23051U 94022A   23031.33452226 -.00000240  00000+0  00000+0 0  9999
2 23051  13.3701  22.5837 0005289  17.7133 170.9891  0.98906527111937
GOES 9 [-]              
1 23581U 95025A   23031.31608191 -.00000269  00000+0  00000+0 0  9994
2 23581  12.8663  22.9987 0004119 107.9904 253.0624  0.98801845100588
GOES 10 [-]             
1 24786U 97019A   23031.50872741  .00000025  00000+0  00000+0 0  9991
2 24786  11.6783  29.2672 0027365 208.8445 153.2337  0.99120997 93852
GOES 11 [-]             
1 26352U 00022A   23031.22124317  .00000059  00000+0  00000+0 0  9995
2 26352   9.1661  57.4925 0002351 239.4512 151.4282  0.99040530 40267
GOES 12 [-]             
1 26871U 01031A   23031.53470634  .00000063  00000+0  00000+0 0  9997
2 26871   9.9268  46.6711 0005640 311.7222 192.4540  0.99135474 78549
EWS-G1 (GOES 13) [+]    
1 29155U 06018A   23031.50541514  .00000041  00000+0  00000+0 0  9994
2 29155   1.1689  92.6863 0004645 170.0041 110.9519  1.00267978 31016
GOES 14 [B]             
1 35491U 09033A   23031.09067435 -.00000088  00000+0  00000+0 0  9995
2 35491   0.0613 210.9803 0016668  18.7019 188.4132  1.00268763 49744
GOES 15 [B]             
1 36411U 10008A   23031.53940946  .00000059  00000+0  00000+0 0  9995
2 36411   0.0196  69.1493 0002296 127.5962 359.6329  1.00271065 47309
GOES 16 [+]             
1 41866U 16071A   23031.54995642 -.00000245  00000+0  00000+0 0  9993
2 41866   0.0849 264.5016 0000818  59.7565 289.0159  1.00271854 22754
GOES 17 [+]             
1 43226U 18022A   23031.58921903 -.00000071  00000+0  00000+0 0  9993
2 43226   0.0221 100.0565 0000978 246.6368 241.3296  1.00595768 18063
GOES 18 [+]             
1 51850U 22021A   23031.36716045  .00000100  00000+0  00000+0 0  9996
2 51850   0.0004 177.5652 0000294 113.4391 194.4642  1.00271954  3423
